     3.04           N: GNSS NAV DATA    G: GPS              RINEX VERSION / TYPE
RTKCONV demo5 b34k  INHA                20250529 110628 UTC PGM / RUN BY / DATE 
format: u-blox UBX                                          COMMENT             
log: C:\Users\wnwjd\Desktop\2025_1\GPSapp\project_RTK\data_0COMMENT             
  529\0529_1628250529_0728.ubx                              COMMENT             
                                                            END OF HEADER       
G30 2025 05 29 10 00 00 -.132759101689D-03  .989075488178D-11  .000000000000D+00
      .410000000000D+02  .909375000000D+01  .551594404692D-08 -.218464809047D+01
      .152736902237D-06  .770313153043D-02  .567361712456D-05  .515366856003D+04
      .381600000000D+06  .139698386192D-06 -.135774495306D+01 -.242143869400D-07
      .935198749616D+00  .254000000000D+03 -.236564764738D+01 -.831534636755D-08
      .477877048354D-09  .100000000000D+01  .236800000000D+04  .000000000000D+00
      .200000000000D+01  .000000000000D+00  .372529029846D-08  .410000000000D+02
      .374406000000D+06  .400000000000D+01
G07 2025 05 29 10 00 00 -.318079255521D-04 -.341060513165D-11  .000000000000D+00
      .250000000000D+02  .731250000000D+01  .507306845652D-08 -.198981066125D+01
      .320374965668D-06  .197134617483D-01  .539235770702D-05  .515370911598D+04
      .381600000000D+06  .268220901489D-06 -.135286871063D+01  .745058059692D-08
      .950002098121D+00  .260468750000D+03 -.204443638367D+01 -.790925802377D-08
      .572881005651D-09  .100000000000D+01  .236800000000D+04  .000000000000D+00
      .200000000000D+01  .000000000000D+00 -.107102096081D-07  .250000000000D+02
      .374406000000D+06  .400000000000D+01
G18 2025 05 29 10 00 00 -.618792138994D-03  .534328137292D-11  .000000000000D+00
      .141000000000D+03  .680625000000D+02  .429696470011D-08 -.116957674646D+01
      .345706939697D-05  .512574508321D-02  .838190317154D-07  .515369177246D+04
      .381600000000D+06  .353902578354D-07  .180852964036D+01 -.186264514923D-06
      .973357589645D+00  .386843750000D+03 -.295629260175D+01 -.827141596625D-08
      .182150444440D-10  .100000000000D+01  .236800000000D+04  .000000000000D+00
      .200000000000D+01  .000000000000D+00 -.838190317154D-08  .653000000000D+03
      .376176000000D+06  .400000000000D+01
G06 2025 05 29 10 00 00 -.380956567824D-03 -.184172677109D-10  .000000000000D+00
      .900000000000D+01  .539062500000D+02  .400588114674D-08 -.114471160686D+01
      .288151204586D-05  .335940695368D-02  .376254320145D-06  .515357788658D+04
      .381600000000D+06 -.279396772385D-07  .180965553869D+01  .279396772385D-07
      .988429265121D+00  .388343750000D+03 -.642165738495D+00 -.813248160764D-08
      .282154610015D-10  .100000000000D+01  .236800000000D+04  .000000000000D+00
      .200000000000D+01  .000000000000D+00  .372529029846D-08  .900000000000D+01
      .374826000000D+06  .400000000000D+01
G13 2025 05 29 09 59 44  .701218377799D-03  .000000000000D+00  .000000000000D+00
      .120000000000D+02 -.451875000000D+02  .400159525393D-08  .599299674277D+00
     -.246986746788D-05  .922646815889D-02  .107474625111D-04  .515368680191D+04
      .381584000000D+06 -.178813934326D-06 -.225472392626D+01  .540167093277D-07
      .973837614028D+00  .180656250000D+03  .955516927698D+00 -.770210653794D-08
      .581095633537D-09  .100000000000D+01  .236800000000D+04  .000000000000D+00
      .200000000000D+01  .000000000000D+00 -.116415321827D-07  .120000000000D+02
      .375036000000D+06  .400000000000D+01
